{
    "links": {
        "self": "http://www.neowsapp.com/rest/v1/neo/3785708?api_key=iIulBulltgU6a56xZRHN4H3l9WmuAYTsLGpBGhQ2"
    },
    "id": "3785708",
    "neo_reference_id": "3785708",
    "name": "(2017 SB33)",
    "designation": "2017 SB33",
    "nasa_jpl_url": "http://ssd.jpl.nasa.gov/sbdb.cgi?sstr=3785708",
    "absolute_magnitude_h": 23.234,
    "estimated_diameter": {
        "kilometers": {
            "estimated_diameter_min": 0.0599452777,
            "estimated_diameter_max": 0.1340417159
        },
        "meters": {
            "estimated_diameter_min": 59.9452777241,
            "estimated_diameter_max": 134.0417159212
        },
        "miles": {
            "estimated_diameter_min": 0.0372482572,
            "estimated_diameter_max": 0.0832896351
        },
        "feet": {
            "estimated_diameter_min": 196.6708649683,
            "estimated_diameter_max": 439.7694232628
        }
    },
    "is_potentially_hazardous_asteroid": false,
    "close_approach_data": [
        {
            "close_approach_date": "2017-10-29",
            "close_approach_date_full": "2017-Oct-29 17:06",
            "epoch_date_close_approach": 1509296760000,
            "relative_velocity": {
                "kilometers_per_second": "14.5472728076",
                "kilometers_per_hour": "52370.182107329",
                "miles_per_hour": "32540.7945433012"
            },
            "miss_distance": {
                "astronomical": "0.1476899686",
                "lunar": "57.4513977854",
                "kilometers": "22094104.722926882",
                "miles": "13728640.0693276916"
            },
            "orbiting_body": "Earth"
        }
    ],
    "orbital_data": {
        "orbit_id": "2",
        "orbit_determination_date": "2019-04-18 07:27:26",
        "first_observation_date": "2017-09-24",
        "last_observation_date": "2017-09-25",
        "data_arc_in_days": 1,
        "observations_used": 9,
        "orbit_uncertainty": "9",
        "minimum_orbit_intersection": ".0873263",
        "jupiter_tisserand_invariant": "3.934",
        "epoch_osculation": "2458021.5",
        "eccentricity": ".6101785318413651",
        "semi_major_axis": "1.711715656882292",
        "inclination": "10.34057900860257",
        "ascending_node_longitude": "231.9939427754066",
        "orbital_period": "817.9859828078016",
        "perihelion_distance": ".6672635104359773",
        "perihelion_argument": "231.7105420037727",
        "aphelion_distance": "2.756167803328607",
        "perihelion_time": "2458097.314431219423",
        "mean_anomaly": "326.6336638858942",
        "mean_motion": ".4401053411261052",
        "equinox": "J2000",
        "orbit_class": {
            "orbit_class_type": "APO",
            "orbit_class_description": "Near-Earth asteroid orbits which cross the Earth’s orbit similar to that of 1862 Apollo",
            "orbit_class_range": "a (semi-major axis) > 1.0 AU; q (perihelion) < 1.017 AU"
        }
    },
    "is_sentry_object": false
}